SL-3 R/B                
1 13403U 82079B   26071.16052473  .00007611  00000+0  30272-3 0  9992
2 13403  81.1477 190.1600 0025149 156.4523 203.7868 15.24841555378074
SL-14 R/B               
1 13553U 82092B   26071.19963346  .00000548  00000+0  58834-4 0  9993
2 13553  82.5690 139.0520 0018903 294.5757 118.3252 14.86669165329300
SL-3 R/B                
1 13819U 83010B   26071.15512336  .00018773  00000+0  37569-3 0  9994
2 13819  81.1061 359.2247 0017770  43.0695 317.1936 15.46455261358322
SL-3 R/B                
1 14208U 83075B   26071.15871939  .00012471  00000+0  32832-3 0  9992
2 14208  97.6147  75.8295 0020351 216.4731 143.5128 15.38483717330537
COSMOS 1536             
1 14699U 84013A   26071.14954388  .00006724  00000+0  27694-3 0  9992
2 14699  82.5429 105.4049 0012529 273.6666  86.3138 15.23862176272998
SL-14 R/B               
1 14820U 84027B   26070.98261429  .00000572  00000+0  62610-4 0  9994
2 14820  82.5389 242.8615 0017186 330.0492  29.9739 14.85978988247979
SL-8 R/B                
1 15483U 85006B   26070.96351259  .00000358  00000+0  12719-3 0  9993
2 15483  74.0432 256.9639 0018363 174.2338 295.6293 14.37784706154353
SL-12 R/B(2)            
1 15772U 85042D   26071.15781270  .00000144  00000+0  86156-4 0  9996
2 15772  71.1062  82.5137 0033133 124.0851 304.8946 14.21983108114749
SL-14 R/B               
1 15945U 85069B   26071.10133682  .00000609  00000+0  66035-4 0  9990
2 15945  82.5289  22.6655 0018693 179.6719 180.4514 14.86436093173191
SL-16 R/B               
1 16182U 85097B   26071.17687642 -.00000147  00000+0 -49472-4 0  9997
2 16182  71.0023 135.3185 0009854 256.7512 170.8630 14.16598301 87584
SL-14 R/B               
1 16496U 86006B   26071.01047510  .00000746  00000+0  76876-4 0  9994
2 16496  82.5236 257.5523 0075057 264.9426  94.3220 14.86818268149556
