CCSDS_OMM_VERS = 2.0
CREATION_DATE  = 
ORIGINATOR     = 

OBJECT_NAME    = SL-3 R/B
OBJECT_ID      = 1982-079B
CENTER_NAME    = EARTH
REF_FRAME      = TEME
TIME_SYSTEM    = UTC
MEAN_ELEMENT_THEORY = SGP/SGP4

EPOCH          = 2026-03-12T03:51:09.336672
MEAN_MOTION    = 15.24841555
ECCENTRICITY   = .0025149
INCLINATION    = 81.1477
RA_OF_ASC_NODE = 190.1600
ARG_OF_PERICENTER = 156.4523
MEAN_ANOMALY   = 203.7868

EPHEMERIS_TYPE = 0
CLASSIFICATION_TYPE = U
NORAD_CAT_ID   = 13403
ELEMENT_SET_NO = 999
REV_AT_EPOCH   = 37807
BSTAR          = .30272E-3
MEAN_MOTION_DOT = .7611E-4
MEAN_MOTION_DDOT = 0

CCSDS_OMM_VERS = 2.0
CREATION_DATE  = 
ORIGINATOR     = 

OBJECT_NAME    = SL-14 R/B
OBJECT_ID      = 1982-092B
CENTER_NAME    = EARTH
REF_FRAME      = TEME
TIME_SYSTEM    = UTC
MEAN_ELEMENT_THEORY = SGP/SGP4

EPOCH          = 2026-03-12T04:47:28.330944
MEAN_MOTION    = 14.86669165
ECCENTRICITY   = .0018903
INCLINATION    = 82.5690
RA_OF_ASC_NODE = 139.0520
ARG_OF_PERICENTER = 294.5757
MEAN_ANOMALY   = 118.3252

EPHEMERIS_TYPE = 0
CLASSIFICATION_TYPE = U
NORAD_CAT_ID   = 13553
ELEMENT_SET_NO = 999
REV_AT_EPOCH   = 32930
BSTAR          = .58834E-4
MEAN_MOTION_DOT = .548E-5
MEAN_MOTION_DDOT = 0

CCSDS_OMM_VERS = 2.0
CREATION_DATE  = 
ORIGINATOR     = 

OBJECT_NAME    = SL-3 R/B
OBJECT_ID      = 1983-010B
CENTER_NAME    = EARTH
REF_FRAME      = TEME
TIME_SYSTEM    = UTC
MEAN_ELEMENT_THEORY = SGP/SGP4

EPOCH          = 2026-03-12T03:43:22.658304
MEAN_MOTION    = 15.46455261
ECCENTRICITY   = .001777
INCLINATION    = 81.1061
RA_OF_ASC_NODE = 359.2247
ARG_OF_PERICENTER = 43.0695
MEAN_ANOMALY   = 317.1936

EPHEMERIS_TYPE = 0
CLASSIFICATION_TYPE = U
NORAD_CAT_ID   = 13819
ELEMENT_SET_NO = 999
REV_AT_EPOCH   = 35832
BSTAR          = .37569E-3
MEAN_MOTION_DOT = .18773E-3
MEAN_MOTION_DDOT = 0

CCSDS_OMM_VERS = 2.0
CREATION_DATE  = 
ORIGINATOR     = 

OBJECT_NAME    = SL-3 R/B
OBJECT_ID      = 1983-075B
CENTER_NAME    = EARTH
REF_FRAME      = TEME
TIME_SYSTEM    = UTC
MEAN_ELEMENT_THEORY = SGP/SGP4

EPOCH          = 2026-03-12T03:48:33.355296
MEAN_MOTION    = 15.38483717
ECCENTRICITY   = .0020351
INCLINATION    = 97.6147
RA_OF_ASC_NODE = 75.8295
ARG_OF_PERICENTER = 216.4731
MEAN_ANOMALY   = 143.5128

EPHEMERIS_TYPE = 0
CLASSIFICATION_TYPE = U
NORAD_CAT_ID   = 14208
ELEMENT_SET_NO = 999
REV_AT_EPOCH   = 33053
BSTAR          = .32832E-3
MEAN_MOTION_DOT = .12471E-3
MEAN_MOTION_DDOT = 0

CCSDS_OMM_VERS = 2.0
CREATION_DATE  = 
ORIGINATOR     = 

OBJECT_NAME    = COSMOS 1536
OBJECT_ID      = 1984-013A
CENTER_NAME    = EARTH
REF_FRAME      = TEME
TIME_SYSTEM    = UTC
MEAN_ELEMENT_THEORY = SGP/SGP4

EPOCH          = 2026-03-12T03:35:20.591232
MEAN_MOTION    = 15.23862176
ECCENTRICITY   = .0012529
INCLINATION    = 82.5429
RA_OF_ASC_NODE = 105.4049
ARG_OF_PERICENTER = 273.6666
MEAN_ANOMALY   = 86.3138

EPHEMERIS_TYPE = 0
CLASSIFICATION_TYPE = U
NORAD_CAT_ID   = 14699
ELEMENT_SET_NO = 999
REV_AT_EPOCH   = 27299
BSTAR          = .27694E-3
MEAN_MOTION_DOT = .6724E-4
MEAN_MOTION_DDOT = 0

CCSDS_OMM_VERS = 2.0
CREATION_DATE  = 
ORIGINATOR     = 

OBJECT_NAME    = SL-14 R/B
OBJECT_ID      = 1984-027B
CENTER_NAME    = EARTH
REF_FRAME      = TEME
TIME_SYSTEM    = UTC
MEAN_ELEMENT_THEORY = SGP/SGP4

EPOCH          = 2026-03-11T23:34:57.874656
MEAN_MOTION    = 14.85978988
ECCENTRICITY   = .0017186
INCLINATION    = 82.5389
RA_OF_ASC_NODE = 242.8615
ARG_OF_PERICENTER = 330.0492
MEAN_ANOMALY   = 29.9739

EPHEMERIS_TYPE = 0
CLASSIFICATION_TYPE = U
NORAD_CAT_ID   = 14820
ELEMENT_SET_NO = 999
REV_AT_EPOCH   = 24797
BSTAR          = .6261E-4
MEAN_MOTION_DOT = .572E-5
MEAN_MOTION_DDOT = 0

CCSDS_OMM_VERS = 2.0
CREATION_DATE  = 
ORIGINATOR     = 

OBJECT_NAME    = SL-8 R/B
OBJECT_ID      = 1985-006B
CENTER_NAME    = EARTH
REF_FRAME      = TEME
TIME_SYSTEM    = UTC
MEAN_ELEMENT_THEORY = SGP/SGP4

EPOCH          = 2026-03-11T23:07:27.487776
MEAN_MOTION    = 14.37784706
ECCENTRICITY   = .0018363
INCLINATION    = 74.0432
RA_OF_ASC_NODE = 256.9639
ARG_OF_PERICENTER = 174.2338
MEAN_ANOMALY   = 295.6293

EPHEMERIS_TYPE = 0
CLASSIFICATION_TYPE = U
NORAD_CAT_ID   = 15483
ELEMENT_SET_NO = 999
REV_AT_EPOCH   = 15435
BSTAR          = .12719E-3
MEAN_MOTION_DOT = .358E-5
MEAN_MOTION_DDOT = 0

CCSDS_OMM_VERS = 2.0
CREATION_DATE  = 
ORIGINATOR     = 

OBJECT_NAME    = SL-12 R/B(2)
OBJECT_ID      = 1985-042D
CENTER_NAME    = EARTH
REF_FRAME      = TEME
TIME_SYSTEM    = UTC
MEAN_ELEMENT_THEORY = SGP/SGP4

EPOCH          = 2026-03-12T03:47:15.017280
MEAN_MOTION    = 14.21983108
ECCENTRICITY   = .0033133
INCLINATION    = 71.1062
RA_OF_ASC_NODE = 82.5137
ARG_OF_PERICENTER = 124.0851
MEAN_ANOMALY   = 304.8946

EPHEMERIS_TYPE = 0
CLASSIFICATION_TYPE = U
NORAD_CAT_ID   = 15772
ELEMENT_SET_NO = 999
REV_AT_EPOCH   = 11474
BSTAR          = .86156E-4
MEAN_MOTION_DOT = .144E-5
MEAN_MOTION_DDOT = 0

CCSDS_OMM_VERS = 2.0
CREATION_DATE  = 
ORIGINATOR     = 

OBJECT_NAME    = SL-14 R/B
OBJECT_ID      = 1985-069B
CENTER_NAME    = EARTH
REF_FRAME      = TEME
TIME_SYSTEM    = UTC
MEAN_ELEMENT_THEORY = SGP/SGP4

EPOCH          = 2026-03-12T02:25:55.501248
MEAN_MOTION    = 14.86436093
ECCENTRICITY   = .0018693
INCLINATION    = 82.5289
RA_OF_ASC_NODE = 22.6655
ARG_OF_PERICENTER = 179.6719
MEAN_ANOMALY   = 180.4514

EPHEMERIS_TYPE = 0
CLASSIFICATION_TYPE = U
NORAD_CAT_ID   = 15945
ELEMENT_SET_NO = 999
REV_AT_EPOCH   = 17319
BSTAR          = .66035E-4
MEAN_MOTION_DOT = .609E-5
MEAN_MOTION_DDOT = 0

CCSDS_OMM_VERS = 2.0
CREATION_DATE  = 
ORIGINATOR     = 

OBJECT_NAME    = SL-16 R/B
OBJECT_ID      = 1985-097B
CENTER_NAME    = EARTH
REF_FRAME      = TEME
TIME_SYSTEM    = UTC
MEAN_ELEMENT_THEORY = SGP/SGP4

EPOCH          = 2026-03-12T04:14:42.122688
MEAN_MOTION    = 14.16598301
ECCENTRICITY   = .0009854
INCLINATION    = 71.0023
RA_OF_ASC_NODE = 135.3185
ARG_OF_PERICENTER = 256.7512
MEAN_ANOMALY   = 170.8630

EPHEMERIS_TYPE = 0
CLASSIFICATION_TYPE = U
NORAD_CAT_ID   = 16182
ELEMENT_SET_NO = 999
REV_AT_EPOCH   = 8758
BSTAR          = -.49472E-4
MEAN_MOTION_DOT = -.147E-5
MEAN_MOTION_DDOT = 0

CCSDS_OMM_VERS = 2.0
CREATION_DATE  = 
ORIGINATOR     = 

OBJECT_NAME    = SL-14 R/B
OBJECT_ID      = 1986-006B
CENTER_NAME    = EARTH
REF_FRAME      = TEME
TIME_SYSTEM    = UTC
MEAN_ELEMENT_THEORY = SGP/SGP4

EPOCH          = 2026-03-12T00:15:05.048640
MEAN_MOTION    = 14.86818268
ECCENTRICITY   = .0075057
INCLINATION    = 82.5236
RA_OF_ASC_NODE = 257.5523
ARG_OF_PERICENTER = 264.9426
MEAN_ANOMALY   = 94.3220

EPHEMERIS_TYPE = 0
CLASSIFICATION_TYPE = U
NORAD_CAT_ID   = 16496
ELEMENT_SET_NO = 999
REV_AT_EPOCH   = 14955
BSTAR          = .76876E-4
MEAN_MOTION_DOT = .746E-5
MEAN_MOTION_DDOT = 0

